COMMENT,ORIGINATOR,NORAD_CAT_ID,OBJECT_NAME,OBJECT_TYPE,CLASSIFICATION_TYPE,INTLDES,EPOCH,EPOCH_MICROSECONDS,MEAN_MOTION,ECCENTRICITY,INCLINATION,RA_OF_ASC_NODE,ARG_OF_PERICENTER,MEAN_ANOMALY,EPHEMERIS_TYPE,ELEMENT_SET_NO,REV_AT_EPOCH,BSTAR,MEAN_MOTION_DOT,MEAN_MOTION_DDOT,FILE,TLE_LINE0,TLE_LINE1,TLE_LINE2,OBJECT_ID,OBJECT_NUMBER,SEMIMAJOR_AXIS,PERIOD,APOGEE,PERIGEE,DECAYED
"GENERATED VIA SPACETRACK.ORG API","18 SPCS","48884","SPACEBEE-101","PAYLOAD","U","21059F","2021-07-24 09:58:59","52864","15.11925316","0.0009818","97.5164","333.8183","148.9535","211.2278","0","999","432","0.00012403","0.00002062","0","3082525","0 SPACEBEE-101","1 48884U 21059F   21205.41596126  .00002062  00000-0  12403-3 0  9996","2 48884  97.5164 333.8183 0009818 148.9535 211.2278 15.11925316  4322","2021-059F","48884","6908.466","95.243","537.114","523.548","0"
"GENERATED VIA SPACETRACK.ORG API","18 SPCS","48884","SPACEBEE-101","PAYLOAD","U","21059F","2021-07-25 08:13:13","696896","15.11928144","0.0009881","97.5166","334.7299","146.0906","214.0957","0","999","446","0.0001145","0.00001899","0","3082986","0 SPACEBEE-101","1 48884U 21059F   21206.34251964  .00001899  00000-0  11450-3 0  9995","2 48884  97.5166 334.7299 0009881 146.0906 214.0957 15.11928144  4465","2021-059F","48884","6908.457","95.243","537.148","523.496","0"
"GENERATED VIA SPACETRACK.ORG API","18 SPCS","48884","SPACEBEE-101","PAYLOAD","U","21059F","2021-07-25 19:20:20","910048","15.11930199","0.0009919","97.5167","335.1857","144.6784","215.5106","0","999","453","0.0001148","0.00001904","0","3083115","0 SPACEBEE-101","1 48884U 21059F   21206.80579757  .00001904  00000-0  11480-3 0  9999","2 48884  97.5167 335.1857 0009919 144.6784 215.5106 15.11930199  4534","2021-059F","48884","6908.451","95.242","537.168","523.463","0"
"GENERATED VIA SPACETRACK.ORG API","18 SPCS","48884","SPACEBEE-101","PAYLOAD","U","21059F","2021-07-26 08:02:46","293792","15.11931809","0.0009953","97.5168","335.7067","142.9995","217.1924","0","999","461","0.00010992","0.00001821","0","3083348","0 SPACEBEE-101","1 48884U 21059F   21207.33525803  .00001821  00000-0  10992-3 0  9996","2 48884  97.5168 335.7067 0009953 142.9995 217.1924 15.11931809  4611","2021-059F","48884","6908.446","95.242","537.187","523.435","0"
"GENERATED VIA SPACETRACK.ORG API","18 SPCS","48884","SPACEBEE-101","PAYLOAD","U","21059F","2021-07-26 08:02:46","293792","15.11931809","0.0009953","97.5168","335.7067","142.9995","217.1924","0","999","461","0.00010992","0.00001821","0","3083474","0 SPACEBEE-101","1 48884U 21059F   21207.33525803  .00001821  00000-0  10992-3 0  9996","2 48884  97.5168 335.7067 0009953 142.9995 217.1924 15.11931809  4611","2021-059F","48884","6908.446","95.242","537.187","523.435","0"
"GENERATED VIA SPACETRACK.ORG API","18 SPCS","48884","SPACEBEE-101","PAYLOAD","U","21059F","2021-07-27 07:52:18","726528","15.11935188","0.0010031","97.517","336.6835","139.9174","220.2798","0","999","476","0.00010583","0.00001751","0","3084099","0 SPACEBEE-101","1 48884U 21059F   21208.32799452  .00001751  00000-0  10583-3 0  9997","2 48884  97.5170 336.6835 0010031 139.9174 220.2798 15.11935188  4765","2021-059F","48884","6908.436","95.242","537.231","523.371","0"
"GENERATED VIA SPACETRACK.ORG API","18 SPCS","48884","SPACEBEE-101","PAYLOAD","U","21059F","2021-07-27 14:13:31","341504","15.11935915","0.0010053","97.5171","336.944","139.0984","221.1002","0","999","480","0.0001036","0.00001713","0","3084180","0 SPACEBEE-101","1 48884U 21059F   21208.59272386  .00001713  00000-0  10360-3 0  9999","2 48884  97.5171 336.9440 0010053 139.0984 221.1002 15.11935915  4806","2021-059F","48884","6908.434","95.242","537.244","523.354","0"
"GENERATED VIA SPACETRACK.ORG API","18 SPCS","48884","SPACEBEE-101","PAYLOAD","U","21059F","2021-07-27 20:34:43","931424","15.11937035","0.0010075","97.5171","337.2044","138.2648","221.9353","0","999","484","0.0001048","0.00001733","0","3084335","0 SPACEBEE-101","1 48884U 21059F   21208.85745291  .00001733  00000-0  10480-3 0  9993","2 48884  97.5171 337.2044 0010075 138.2648 221.9353 15.11937035  4848","2021-059F","48884","6908.430","95.242","537.255","523.335","0"
"GENERATED VIA SPACETRACK.ORG API","18 SPCS","48884","SPACEBEE-101","PAYLOAD","U","21059F","2021-07-28 07:41:50","923392","15.11939014","0.0010106","97.5171","337.6602","136.8362","223.3662","0","999","491","0.00010746","0.00001779","0","3084730","0 SPACEBEE-101","1 48884U 21059F   21209.32072828  .00001779  00000-0  10746-3 0  9990","2 48884  97.5171 337.6602 0010106 136.8362 223.3662 15.11939014  4910","2021-059F","48884","6908.424","95.242","537.271","523.307","0"
"GENERATED VIA SPACETRACK.ORG API","18 SPCS","48884","SPACEBEE-101","PAYLOAD","U","21059F","2021-07-28 20:24:16","29792","15.11940694","0.0010147","97.5172","338.1812","135.215","224.9901","0","999","499","0.00010574","0.0000175","0","3085005","0 SPACEBEE-101","1 48884U 21059F   21209.85018553  .00001750  00000-0  10574-3 0  9991","2 48884  97.5172 338.1812 0010147 135.2150 224.9901 15.11940694  4990","2021-059F","48884","6908.419","95.242","537.294","523.274","0"
"GENERATED VIA SPACETRACK.ORG API","18 SPCS","48884","SPACEBEE-101","PAYLOAD","U","21059F","2021-07-28 21:59:34","164096","15.11940913","0.0010151","97.5172","338.2463","135.0133","225.1921","0","999","500","0.0001057","0.00001749","0","3085085","0 SPACEBEE-101","1 48884U 21059F   21209.91636764  .00001749  00000-0  10570-3 0  9992","2 48884  97.5172 338.2463 0010151 135.0133 225.1921 15.11940913  5009","2021-059F","48884","6908.418","95.242","537.296","523.271","0"
"GENERATED VIA SPACETRACK.ORG API","18 SPCS","48884","SPACEBEE-101","PAYLOAD","U","21059F","2021-07-29 07:31:22","940544","15.11942733","0.0010169","97.5172","338.637","133.8159","226.3914","0","999","506","0.00011049","0.00001831","0","3085488","0 SPACEBEE-101","1 48884U 21059F   21210.31345996  .00001831  00000-0  11049-3 0  9996","2 48884  97.5172 338.6370 0010169 133.8159 226.3914 15.11942733  5066","2021-059F","48884","6908.413","95.242","537.303","523.253","0"
"GENERATED VIA SPACETRACK.ORG API","18 SPCS","48884","SPACEBEE-101","PAYLOAD","U","21059F","2021-07-29 20:13:47","901792","15.11944979","0.0010209","97.5172","339.158","132.1859","228.024","0","999","514","0.00011366","0.00001886","0","3085670","0 SPACEBEE-101","1 48884U 21059F   21210.84291553  .00001886  00000-0  11366-3 0  9995","2 48884  97.5172 339.1580 0010209 132.1859 228.0240 15.11944979  5143","2021-059F","48884","6908.406","95.242","537.324","523.218","0"
"GENERATED VIA SPACETRACK.ORG API","18 SPCS","48884","SPACEBEE-101","PAYLOAD","U","21059F","2021-07-30 02:35:00","359520","15.11946033","0.0010226","97.5172","339.4185","131.4224","228.7886","0","999","518","0.00011501","0.00001909","0","3085753","0 SPACEBEE-101","1 48884U 21059F   21211.10764305  .00001909  00000-0  11501-3 0  9992","2 48884  97.5172 339.4185 0010226 131.4224 228.7886 15.11946033  5184","2021-059F","48884","6908.403","95.241","537.332","523.203","0"
"GENERATED VIA SPACETRACK.ORG API","18 SPCS","48884","SPACEBEE-101","PAYLOAD","U","21059F","2021-07-30 02:35:00","359520","15.11946033","0.0010226","97.5172","339.4185","131.4224","228.7886","0","999","518","0.00011501","0.00001909","0","3085948","0 SPACEBEE-101","1 48884U 21059F   21211.10764305  .00001909  00000-0  11501-3 0  9992","2 48884  97.5172 339.4185 0010226 131.4224 228.7886 15.11946033  5184","2021-059F","48884","6908.403","95.241","537.332","523.203","0"
"GENERATED VIA SPACETRACK.ORG API","18 SPCS","48884","SPACEBEE-101","PAYLOAD","U","21059F","2021-07-30 20:03:19","568160","15.11948545","0.0010267","97.5172","340.1347","129.2784","230.9359","0","999","529","0.0001138","0.00001888","0","3086384","0 SPACEBEE-101","1 48884U 21059F   21211.83564315  .00001888  00000-0  11380-3 0  9992","2 48884  97.5172 340.1347 0010267 129.2784 230.9359 15.11948545  5296","2021-059F","48884","6908.395","95.241","537.353","523.167","0"
"GENERATED VIA SPACETRACK.ORG API","18 SPCS","48884","SPACEBEE-101","PAYLOAD","U","21059F","2021-07-31 07:10:26","273280","15.11949997","0.0010283","97.5171","340.5906","127.9231","232.2931","0","999","536","0.00011142","0.00001848","0","3086683","0 SPACEBEE-101","1 48884U 21059F   21212.29891520  .00001848  00000-0  11142-3 0  9996","2 48884  97.5171 340.5906 0010283 127.9231 232.2931 15.11949997  5361","2021-059F","48884","6908.391","95.241","537.360","523.152","0"
"GENERATED VIA SPACETRACK.ORG API","18 SPCS","48884","SPACEBEE-101","PAYLOAD","U","21059F","2021-07-31 07:10:26","273280","15.11949997","0.0010283","97.5171","340.5906","127.9231","232.2931","0","999","536","0.00011142","0.00001848","0","3086827","0 SPACEBEE-101","1 48884U 21059F   21212.29891520  .00001848  00000-0  11142-3 0  9996","2 48884  97.5171 340.5906 0010283 127.9231 232.2931 15.11949997  5361","2021-059F","48884","6908.391","95.241","537.360","523.152","0"
"GENERATED VIA SPACETRACK.ORG API","18 SPCS","48884","SPACEBEE-101","PAYLOAD","U","21059F","2021-07-31 19:52:51","23712","15.11951425","0.0010309","97.5172","341.1116","126.3638","233.8545","0","999","544","0.00010537","0.00001744","0","3087042","0 SPACEBEE-101","1 48884U 21059F   21212.82836833  .00001744  00000-0  10537-3 0  9993","2 48884  97.5172 341.1116 0010309 126.3638 233.8545 15.11951425  5441","2021-059F","48884","6908.386","95.241","537.373","523.129","0"
"GENERATED VIA SPACETRACK.ORG API","18 SPCS","48884","SPACEBEE-101","PAYLOAD","U","21059F","2021-08-01 06:59:57","640704","15.11951841","0.0010329","97.5172","341.5675","124.9876","235.2325","0","999","551","0.000091395","0.00001504","0","3087492","0 SPACEBEE-101","1 48884U 21059F   21213.29163936  .00001504  00000-0  91395-4 0  9998","2 48884  97.5172 341.5675 0010329 124.9876 235.2325 15.11951841  5517","2021-059F","48884","6908.385","95.241","537.386","523.114","0"
